{
    "links": {
        "self": "http://www.neowsapp.com/rest/v1/neo/3989246?api_key=iIulBulltgU6a56xZRHN4H3l9WmuAYTsLGpBGhQ2"
    },
    "id": "3989246",
    "neo_reference_id": "3989246",
    "name": "(2020 BU10)",
    "designation": "2020 BU10",
    "nasa_jpl_url": "http://ssd.jpl.nasa.gov/sbdb.cgi?sstr=3989246",
    "absolute_magnitude_h": 25.704,
    "estimated_diameter": {
        "kilometers": {
            "estimated_diameter_min": 0.0192200705,
            "estimated_diameter_max": 0.0429773842
        },
        "meters": {
            "estimated_diameter_min": 19.2200705116,
            "estimated_diameter_max": 42.9773841962
        },
        "miles": {
            "estimated_diameter_min": 0.0119427944,
            "estimated_diameter_max": 0.0267049002
        },
        "feet": {
            "estimated_diameter_min": 63.0579761372,
            "estimated_diameter_max": 141.0019211663
        }
    },
    "is_potentially_hazardous_asteroid": false,
    "close_approach_data": [
        {
            "close_approach_date": "2020-01-28",
            "close_approach_date_full": "2020-Jan-28 20:48",
            "epoch_date_close_approach": 1580244480000,
            "relative_velocity": {
                "kilometers_per_second": "10.9415491466",
                "kilometers_per_hour": "39389.5769277258",
                "miles_per_hour": "24475.1512860083"
            },
            "miss_distance": {
                "astronomical": "0.088315092",
                "lunar": "34.354570788",
                "kilometers": "13211749.65205404",
                "miles": "8209400.558824152"
            },
            "orbiting_body": "Earth"
        }
    ],
    "orbital_data": {
        "orbit_id": "1",
        "orbit_determination_date": "2020-01-28 09:42:29",
        "first_observation_date": "2020-01-26",
        "last_observation_date": "2020-01-28",
        "data_arc_in_days": 2,
        "observations_used": 19,
        "orbit_uncertainty": "8",
        "minimum_orbit_intersection": ".0848465",
        "jupiter_tisserand_invariant": "4.785",
        "epoch_osculation": "2458875.5",
        "eccentricity": ".2200188700752951",
        "semi_major_axis": "1.352687104219215",
        "inclination": "19.46380989724928",
        "ascending_node_longitude": "305.6144653749474",
        "orbital_period": "574.638144967504",
        "perihelion_distance": "1.05507041598348",
        "perihelion_argument": "203.9515867085503",
        "aphelion_distance": "1.650303792454949",
        "perihelion_time": "2458897.341881022096",
        "mean_anomaly": "346.316471962718",
        "mean_motion": ".6264812093536849",
        "equinox": "J2000",
        "orbit_class": {
            "orbit_class_type": "AMO",
            "orbit_class_description": "Near-Earth asteroid orbits similar to that of 1221 Amor",
            "orbit_class_range": "1.017 AU < q (perihelion) < 1.3 AU"
        }
    },
    "is_sentry_object": false
}